[{"OBJECT_NAME":"TEN-KOH","OBJECT_ID":"2018-084G","EPOCH":"2026-03-09T23:23:52.653408","MEAN_MOTION":15.02465351,"ECCENTRICITY":0.0011972,"INCLINATION":98.0798,"RA_OF_ASC_NODE":257.1735,"ARG_OF_PERICENTER":91.8355,"MEAN_ANOMALY":268.424,"EPHEMERIS_TYPE":0,"CLASSIFICATION_TYPE":"U","NORAD_CAT_ID":43677,"ELEMENT_SET_NO":999,"REV_AT_EPOCH":40126,"BSTAR":0.00025918134,"MEAN_MOTION_DOT":3.377e-5,"MEAN_MOTION_DDOT":0},{"OBJECT_NAME":"STARLINK-35229","OBJECT_ID":"2025-207J","EPOCH":"2026-03-09T17:28:38.536320","MEAN_MOTION":15.05647227,"ECCENTRICITY":6.869e-5,"INCLINATION":97.6031,"RA_OF_ASC_NODE":138.6445,"ARG_OF_PERICENTER":88.9224,"MEAN_ANOMALY":271.2081,"EPHEMERIS_TYPE":0,"CLASSIFICATION_TYPE":"U","NORAD_CAT_ID":65600,"ELEMENT_SET_NO":999,"REV_AT_EPOCH":2826,"BSTAR":0.00036705652,"MEAN_MOTION_DOT":5.239e-5,"MEAN_MOTION_DDOT":0}]
